{"type": "FeatureCollection", "features": [ {"type": "Feature", "properties": {"norad_id": 30597, "name": "FENGYUN 1C DEB", "group": "fengyun-1c-debris", "lat": 20.85149369944971, "lon": 119.79178566882534, "alt_km": 559.8878520783483, "timestamp": "2025-12-24T07:45:06.477045+00:00", "meta": {"OBJECT_NAME": "FENGYUN 1C DEB", "OBJECT_ID": "1999-025AMC", "EPOCH": "2025-12-22T06:48:12.369600", "MEAN_MOTION": 14.93233042, "ECCENTRICITY": 0.0046403, "INCLINATION": 98.9414, "RA_OF_ASC_NODE": 294.0371, "ARG_OF_PERICENTER": 132.6811, "MEAN_ANOMALY": 227.8328, "EPHEMERIS_TYPE": 0, "CLASSIFICATION_TYPE": "U", "NORAD_CAT_ID": 30597, "ELEMENT_SET_NO": 999, "REV_AT_EPOCH": 98679, "BSTAR": 0.0052136953, "MEAN_MOTION_DOT": 0.00056011, "MEAN_MOTION_DDOT": 0}, "tle": {"line1": "1 30597U 99025AMC 25356.28347650  .00056011  00000+0  52137-2 0  9997", "line2": "2 30597  98.9414 294.0371 0046403 132.6811 227.8328 14.93233042986798"}}, "geometry": {"type": "Point", "coordinates": [119.79178566882534, 20.85149369944971]}}, {"type": "Feature", "properties": {"norad_id": 30599, "name": "FENGYUN 1C DEB", "group": "fengyun-1c-debris", "lat": 74.80812455940841, "lon": -24.241373707093803, "alt_km": 943.3208284663069, "timestamp": "2025-12-24T07:45:06.477055+00:00", "meta": {"OBJECT_NAME": "FENGYUN 1C DEB", "OBJECT_ID": "1999-025AME", "EPOCH": "2025-12-22T06:20:23.996832", "MEAN_MOTION": 14.1973512, "ECCENTRICITY": 0.03018402, "INCLINATION": 98.6022, "RA_OF_ASC_NODE": 7.6345, "ARG_OF_PERICENTER": 317.1611, "MEAN_ANOMALY": 40.6398, "EPHEMERIS_TYPE": 0, "CLASSIFICATION_TYPE": "U", "NORAD_CAT_ID": 30599, "ELEMENT_SET_NO": 999, "REV_AT_EPOCH": 97302, "BSTAR": 0.00072444523, "MEAN_MOTION_DOT": 2.37e-05, "MEAN_MOTION_DDOT": 0}, "tle": {"line1": "1 30599U 99025AME 25356.26416663  .00002370  00000+0  72445-3 0  9992", "line2": "2 30599  98.6022   7.6345 0301840 317.1611  40.6398 14.19735120973020"}}, "geometry": {"type": "Point", "coordinates": [-24.241373707093803, 74.80812455940841]}}, {"type": "Feature", "properties": {"norad_id": 30600, "name": "FENGYUN 1C DEB", "group": "fengyun-1c-debris", "lat": 32.726934645907455, "lon": -63.16953446556052, "alt_km": 1101.8644469035544, "timestamp": "2025-12-24T07:45:06.477068+00:00", "meta": {"OBJECT_NAME": "FENGYUN 1C DEB", "OBJECT_ID": "1999-025AMF", "EPOCH": "2025-12-22T19:45:34.111008", "MEAN_MOTION": 14.07639509, "ECCENTRICITY": 0.03264323, "INCLINATION": 98.3895, "RA_OF_ASC_NODE": 300.8763, "ARG_OF_PERICENTER": 218.4416, "MEAN_ANOMALY": 139.309, "EPHEMERIS_TYPE": 0, "CLASSIFICATION_TYPE": "U", "NORAD_CAT_ID": 30600, "ELEMENT_SET_NO": 999, "REV_AT_EPOCH": 94574, "BSTAR": 0.0023241533, "MEAN_MOTION_DOT": 6.358e-05, "MEAN_MOTION_DDOT": 0}, "tle": {"line1": "1 30600U 99025AMF 25356.82331147  .00006358  00000+0  23242-2 0  9990", "line2": "2 30600  98.3895 300.8763 0326432 218.4416 139.3090 14.07639509945744"}}, "geometry": {"type": "Point", "coordinates": [-63.16953446556052, 32.726934645907455]}}, {"type": "Feature", "properties": {"norad_id": 30602, "name": "FENGYUN 1C DEB", "group": "fengyun-1c-debris", "lat": -37.4315154461662, "lon": -79.11714206992153, "alt_km": 601.1315323826766, "timestamp": "2025-12-24T07:45:06.477079+00:00", "meta": {"OBJECT_NAME": "FENGYUN 1C DEB", "OBJECT_ID": "1999-025AMH", "EPOCH": "2025-12-23T11:14:34.423008", "MEAN_MOTION": 14.92718644, "ECCENTRICITY": 0.00138052, "INCLINATION": 99.0335, "RA_OF_ASC_NODE": 272.9087, "ARG_OF_PERICENTER": 91.2419, "MEAN_ANOMALY": 321.435, "EPHEMERIS_TYPE": 0, "CLASSIFICATION_TYPE": "U", "NORAD_CAT_ID": 30602, "ELEMENT_SET_NO": 999, "REV_AT_EPOCH": 97965, "BSTAR": 0.0074566759, "MEAN_MOTION_DOT": 0.00077869, "MEAN_MOTION_DDOT": 0}, "tle": {"line1": "1 30602U 99025AMH 25357.46845397  .00077869  00000+0  74567-2 0  9991", "line2": "2 30602  99.0335 272.9087 0013805  91.2419 321.4350 14.92718644979650"}}, "geometry": {"type": "Point", "coordinates": [-79.11714206992153, -37.4315154461662]}}, {"type": "Feature", "properties": {"norad_id": 30603, "name": "FENGYUN 1C DEB", "group": "fengyun-1c-debris", "lat": 80.80146680173766, "lon": -45.93636522261633, "alt_km": 933.4068811724055, "timestamp": "2025-12-24T07:45:06.477093+00:00", "meta": {"OBJECT_NAME": "FENGYUN 1C DEB", "OBJECT_ID": "1999-025AMJ", "EPOCH": "2025-12-23T12:59:08.371968", "MEAN_MOTION": 13.84154416, "ECCENTRICITY": 0.01834923, "INCLINATION": 98.4081, "RA_OF_ASC_NODE": 19.3324, "ARG_OF_PERICENTER": 175.9095, "MEAN_ANOMALY": 338.3171, "EPHEMERIS_TYPE": 0, "CLASSIFICATION_TYPE": "U", "NORAD_CAT_ID": 30603, "ELEMENT_SET_NO": 999, "REV_AT_EPOCH": 95025, "BSTAR": 0.0011473428, "MEAN_MOTION_DOT": 1.42e-05, "MEAN_MOTION_DDOT": 0}, "tle": {"line1": "1 30603U 99025AMJ 25357.54106912  .00001420  00000+0  11473-2 0  9991", "line2": "2 30603  98.4081  19.3324 0183492 175.9095 338.3171 13.84154416950253"}}, "geometry": {"type": "Point", "coordinates": [-45.93636522261633, 80.80146680173766]}}, {"type": "Feature", "properties": {"norad_id": 30604, "name": "FENGYUN 1C DEB", "group": "fengyun-1c-debris", "lat": -41.978021006823155, "lon": 40.29237946920129, "alt_km": 674.4787839270302, "timestamp": "2025-12-24T07:45:06.477105+00:00", "meta": {"OBJECT_NAME": "FENGYUN 1C DEB", "OBJECT_ID": "1999-025AMK", "EPOCH": "2025-12-23T20:59:55.032864", "MEAN_MOTION": 14.23628516, "ECCENTRICITY": 0.02090378, "INCLINATION": 98.4012, "RA_OF_ASC_NODE": 32.2233, "ARG_OF_PERICENTER": 334.228, "MEAN_ANOMALY": 208.9814, "EPHEMERIS_TYPE": 0, "CLASSIFICATION_TYPE": "U", "NORAD_CAT_ID": 30604, "ELEMENT_SET_NO": 999, "REV_AT_EPOCH": 97997, "BSTAR": 0.00028776995, "MEAN_MOTION_DOT": 7.75e-06, "MEAN_MOTION_DDOT": 0}, "tle": {"line1": "1 30604U 99025AMK 25357.87494251  .00000775  00000+0  28777-3 0  9992", "line2": "2 30604  98.4012  32.2233 0209037 334.2280 208.9814 14.23628516979978"}}, "geometry": {"type": "Point", "coordinates": [40.29237946920129, -41.978021006823155]}}, {"type": "Feature", "properties": {"norad_id": 30606, "name": "FENGYUN 1C DEB", "group": "fengyun-1c-debris", "lat": -71.78301094251239, "lon": 33.798882464793785, "alt_km": 858.9682783234312, "timestamp": "2025-12-24T07:45:06.477115+00:00", "meta": {"OBJECT_NAME": "FENGYUN 1C DEB", "OBJECT_ID": "1999-025AMM", "EPOCH": "2025-12-23T07:27:15.331968", "MEAN_MOTION": 14.57701586, "ECCENTRICITY": 0.02143335, "INCLINATION": 98.0955, "RA_OF_ASC_NODE": 7.188, "ARG_OF_PERICENTER": 104.3642, "MEAN_ANOMALY": 272.6301, "EPHEMERIS_TYPE": 0, "CLASSIFICATION_TYPE": "U", "NORAD_CAT_ID": 30606, "ELEMENT_SET_NO": 999, "REV_AT_EPOCH": 99396, "BSTAR": 0.00055982077, "MEAN_MOTION_DOT": 3.456e-05, "MEAN_MOTION_DDOT": 0}, "tle": {"line1": "1 30606U 99025AMM 25357.31059412  .00003456  00000+0  55982-3 0  9996", "line2": "2 30606  98.0955   7.1880 0214333 104.3642 272.6301 14.57701586993964"}}, "geometry": {"type": "Point", "coordinates": [33.798882464793785, -71.78301094251239]}}, {"type": "Feature", "properties": {"norad_id": 30608, "name": "FENGYUN 1C DEB", "group": "fengyun-1c-debris", "lat": -59.275082130023236, "lon": -133.98165125580067, "alt_km": 804.4730205635096, "timestamp": "2025-12-24T07:45:06.477125+00:00", "meta": {"OBJECT_NAME": "FENGYUN 1C DEB", "OBJECT_ID": "1999-025AMP", "EPOCH": "2025-12-23T23:03:06.899328", "MEAN_MOTION": 14.28535823, "ECCENTRICITY": 0.00163729, "INCLINATION": 98.7088, "RA_OF_ASC_NODE": 60.6017, "ARG_OF_PERICENTER": 147.6351, "MEAN_ANOMALY": 29.3778, "EPHEMERIS_TYPE": 0, "CLASSIFICATION_TYPE": "U", "NORAD_CAT_ID": 30608, "ELEMENT_SET_NO": 999, "REV_AT_EPOCH": 97599, "BSTAR": 0.0011811478, "MEAN_MOTION_DOT": 2.922e-05, "MEAN_MOTION_DDOT": 0}, "tle": {"line1": "1 30608U 99025AMP 25357.96049652  .00002922  00000+0  11811-2 0  9993", "line2": "2 30608  98.7088  60.6017 0016372 147.6351  29.3778 14.28535823975991"}}, "geometry": {"type": "Point", "coordinates": [-133.98165125580067, -59.275082130023236]}}, {"type": "Feature", "properties": {"norad_id": 30609, "name": "FENGYUN 1C DEB", "group": "fengyun-1c-debris", "lat": 46.767502787319636, "lon": 103.64641346767611, "alt_km": 882.3532857091832, "timestamp": "2025-12-24T07:45:06.477136+00:00", "meta": {"OBJECT_NAME": "FENGYUN 1C DEB", "OBJECT_ID": "1999-025AMQ", "EPOCH": "2025-12-23T00:30:28.116000", "MEAN_MOTION": 14.11299562, "ECCENTRICITY": 0.01199947, "INCLINATION": 98.5696, "RA_OF_ASC_NODE": 273.1738, "ARG_OF_PERICENTER": 24.1691, "MEAN_ANOMALY": 336.5048, "EPHEMERIS_TYPE": 0, "CLASSIFICATION_TYPE": "U", "NORAD_CAT_ID": 30609, "ELEMENT_SET_NO": 999, "REV_AT_EPOCH": 95873, "BSTAR": 0.0026768855, "MEAN_MOTION_DOT": 5.136e-05, "MEAN_MOTION_DDOT": 0}, "tle": {"line1": "1 30609U 99025AMQ 25357.02115875  .00005136  00000+0  26769-2 0  9990", "line2": "2 30609  98.5696 273.1738 0119994  24.1691 336.5048 14.11299562958731"}}, "geometry": {"type": "Point", "coordinates": [103.64641346767611, 46.767502787319636]}}, {"type": "Feature", "properties": {"norad_id": 30612, "name": "FENGYUN 1C DEB", "group": "fengyun-1c-debris", "lat": -28.140389768244898, "lon": -5.024404891259811, "alt_km": 459.25456569162, "timestamp": "2025-12-24T07:45:06.477148+00:00", "meta": {"OBJECT_NAME": "FENGYUN 1C DEB", "OBJECT_ID": "1999-025AMT", "EPOCH": "2025-12-23T10:37:53.790816", "MEAN_MOTION": 15.31918417, "ECCENTRICITY": 0.00257085, "INCLINATION": 99.0817, "RA_OF_ASC_NODE": 348.9902, "ARG_OF_PERICENTER": 311.1546, "MEAN_ANOMALY": 209.8397, "EPHEMERIS_TYPE": 0, "CLASSIFICATION_TYPE": "U", "NORAD_CAT_ID": 30612, "ELEMENT_SET_NO": 999, "REV_AT_EPOCH": 421, "BSTAR": 0.0034891811, "MEAN_MOTION_DOT": 0.00109994, "MEAN_MOTION_DDOT": 0}, "tle": {"line1": "1 30612U 99025AMT 25357.44298369  .00109994  00000+0  34892-2 0  9993", "line2": "2 30612  99.0817 348.9902 0025708 311.1546 209.8397 15.31918417  4211"}}, "geometry": {"type": "Point", "coordinates": [-5.024404891259811, -28.140389768244898]}}]}